NORAD_CAT_ID,OBJECT_NAME,OBJECT_TYPE,EPOCH,MEAN_MOTION,ECCENTRICITY,INCLINATION,RA_OF_ASC_NODE,ARG_OF_PERICENTER,MEAN_ANOMALY,BSTAR,MEAN_MOTION_DOT,MEAN_MOTION_DDOT,TLE_LINE0,TLE_LINE1,TLE_LINE2,SEMIMAJOR_AXIS,PERIOD,APOGEE,PERIGEE,DECAYED
55788.0,STARLINK-5804,PAYLOAD,2024-05-25 13:51:09,14.98327658,0.0002985,69.9999,51.2925,271.5457,88.536,-0.000135,-1.703e-05,0.0,0 STARLINK-5804,1 55788U 23028AZ  24146.57719443 -.00001703  00000-0 -13500-3 0  9990,2 55788  69.9999  51.2925 0002985 271.5457  88.5360 14.98327658 69193,6950.2,96.107,574.14,569.99,0.0
55788.0,STARLINK-5804,PAYLOAD,2024-05-25 18:39:33,14.98321753,0.0002968,69.9999,50.7875,270.7664,89.3155,2.2949e-05,1.81e-06,0.0,0 STARLINK-5804,1 55788U 23028AZ  24146.77747490  .00000181  00000-0  22949-4 0  9990,2 55788  69.9999  50.7875 0002968 270.7664  89.3155 14.98321753 69217,6950.218,96.108,574.146,570.021,0.0
55788.0,STARLINK-5804,PAYLOAD,2024-05-26 04:16:21,14.98335816,0.0002971,70.0,49.7777,270.12,89.9618,6.9472e-06,-1e-07,0.0,0 STARLINK-5804,1 55788U 23028AZ  24147.17802644 -.00000010  00000-0  69472-5 0  9993,2 55788  70.0000  49.7777 0002971 270.1200  89.9618 14.98335816 69277,6950.175,96.107,574.105,569.975,0.0
55788.0,STARLINK-5804,PAYLOAD,2024-05-26 13:53:10,14.98335154,0.0002954,70.0,48.7678,270.0805,90.0015,-0.00012734,-1.612e-05,0.0,0 STARLINK-5804,1 55788U 23028AZ  24147.57858879 -.00001612  00000-0 -12734-3 0  9995,2 55788  70.0000  48.7678 0002954 270.0805  90.0015 14.98335154 69344,6950.177,96.107,574.095,569.989,0.0
55788.0,STARLINK-5804,PAYLOAD,2024-05-26 21:53:50,14.98326695,0.0002891,70.0,47.9262,270.5244,89.5584,0.00013657,1.537e-05,0.0,0 STARLINK-5804,1 55788U 23028AZ  24147.91238852  .00001537  00000-0  13657-3 0  9995,2 55788  70.0000  47.9262 0002891 270.5244  89.5584 14.98326695 69395,6950.203,96.107,574.077,570.059,0.0
55788.0,STARLINK-5804,PAYLOAD,2024-05-27 04:18:22,14.98335632,0.0002898,70.0,47.2528,270.4242,89.6585,0.00014548,1.644e-05,0.0,0 STARLINK-5804,1 55788U 23028AZ  24148.17942226  .00001644  00000-0  14548-3 0  9990,2 55788  70.0000  47.2528 0002898 270.4242  89.6585 14.98335632 69424,6950.175,96.107,574.055,570.026,0.0
55788.0,STARLINK-5804,PAYLOAD,2024-05-27 12:19:03,14.98329837,0.0002896,70.0,46.4111,270.8033,89.2794,-2.7693e-05,-4.23e-06,0.0,0 STARLINK-5804,1 55788U 23028AZ  24148.51322942 -.00000423  00000-0 -27693-4 0  9997,2 55788  70.0000  46.4111 0002896 270.8033  89.2794 14.98329837 69476,6950.193,96.107,574.071,570.046,0.0
55788.0,STARLINK-5804,PAYLOAD,2024-05-27 13:55:11,14.98327882,0.00029,70.0,46.2428,270.2817,89.8009,-5.8628e-05,-7.92e-06,0.0,0 STARLINK-5804,1 55788U 23028AZ  24148.57999145 -.00000792  00000-0 -58628-4 0  9999,2 55788  70.0000  46.2428 0002900 270.2817  89.8009 14.98327882 69490,6950.199,96.107,574.08,570.049,0.0
55788.0,STARLINK-5804,PAYLOAD,2024-05-27 21:55:51,14.98327394,0.0002944,70.0,45.4012,268.3056,91.7765,5.1738e-05,5.24e-06,0.0,0 STARLINK-5804,1 55788U 23028AZ  24148.91378925  .00000524  00000-0  51738-4 0  9990,2 55788  70.0000  45.4012 0002944 268.3056  91.7765 14.98327394 69546,6950.201,96.107,574.112,570.02,0.0
55788.0,STARLINK-5804,PAYLOAD,2024-05-28 10:44:55,14.98336597,0.0002979,70.0,44.0543,268.6253,91.4564,1.6354e-05,1.02e-06,0.0,0 STARLINK-5804,1 55788U 23028AZ  24149.44786259  .00000102  00000-0  16354-4 0  9999,2 55788  70.0000  44.0543 0002979 268.6253  91.4564 14.98336597 69617,6950.172,96.107,574.108,569.967,0.0
55788.0,STARLINK-5804,PAYLOAD,2024-05-28 20:21:44,14.983277,0.0003001,70.0,43.0446,269.0005,91.081,-2.5195e-05,-3.94e-06,0.0,0 STARLINK-5804,1 55788U 23028AZ  24149.84842941 -.00000394  00000-0 -25195-4 0  9992,2 55788  70.0000  43.0446 0003001 269.0005  91.0810 14.98327700 69677,6950.2,96.107,574.151,569.979,0.0
55788.0,STARLINK-5804,PAYLOAD,2024-05-28 21:57:52,14.98327754,0.0003005,70.0,42.8763,269.1759,90.9056,-2.4151e-05,-3.81e-06,0.0,0 STARLINK-5804,1 55788U 23028AZ  24149.91518941 -.00000381  00000-0 -24151-4 0  9997,2 55788  70.0000  42.8763 0003005 269.1759  90.9056 14.98327754 69698,6950.2,96.107,574.153,569.976,0.0
55788.0,STARLINK-5804,PAYLOAD,2024-05-29 02:46:16,14.9833309,0.0003006,70.0001,42.3714,269.6526,90.4288,-3.3514e-06,-1.33e-06,0.0,0 STARLINK-5804,1 55788U 23028AZ  24150.11546519 -.00000133  00000-0 -33514-5 0  9992,2 55788  70.0001  42.3714 0003006 269.6526  90.4288 14.98333090 69713,6950.183,96.107,574.138,569.959,0.0
55788.0,STARLINK-5804,PAYLOAD,2024-05-29 21:59:52,14.98329691,0.000305,70.0001,40.3514,268.4734,91.6076,3.8577e-05,3.67e-06,0.0,0 STARLINK-5804,1 55788U 23028AZ  24150.91658493  .00000367  00000-0  38577-4 0  9995,2 55788  70.0001  40.3514 0003050 268.4734  91.6076 14.98329691 69840,6950.194,96.107,574.179,569.939,0.0
55788.0,STARLINK-5804,PAYLOAD,2024-05-30 02:48:16,14.98336071,0.0003032,70.0002,39.8462,268.81,91.2712,6.7533e-05,7.13e-06,0.0,0 STARLINK-5804,1 55788U 23028AZ  24151.11685949  .00000713  00000-0  67533-4 0  9993,2 55788  70.0002  39.8462 0003032 268.8100  91.2712 14.98336071 69862,6950.174,96.107,574.146,569.932,0.0
55788.0,STARLINK-5804,PAYLOAD,2024-05-30 18:49:37,14.98329923,0.0002767,70.0009,38.1641,266.0514,94.0329,2.7974e-05,2.41e-06,0.0,0 STARLINK-5804,1 55788U 23028AZ  24151.78446321  .00000241  00000-0  27974-4 0  9996,2 55788  70.0009  38.1641 0002767 266.0514  94.0329 14.98329923 69967,6950.193,96.107,573.981,570.135,0.0
55788.0,STARLINK-5804,PAYLOAD,2024-05-31 02:50:17,14.98334352,0.0002729,70.0011,37.3224,266.1897,93.895,3.137e-05,2.81e-06,0.0,0 STARLINK-5804,1 55788U 23028AZ  24152.11826002  .00000281  00000-0  31370-4 0  9991,2 55788  70.0011  37.3224 0002729 266.1897  93.8950 14.98334352 70029,6950.179,96.107,573.941,570.148,0.0
55788.0,STARLINK-5804,PAYLOAD,2024-05-31 20:27:46,14.98332619,0.0002765,70.0009,35.4698,269.9,90.1843,-3.6533e-05,-5.29e-06,0.0,0 STARLINK-5804,1 55788U 23028AZ  24152.85262147 -.00000529  00000-0 -36533-4 0  9999,2 55788  70.0009  35.4698 0002765 269.9000  90.1843 14.98332619 70123,6950.185,96.107,573.972,570.128,0.0
55788.0,STARLINK-5804,PAYLOAD,2024-05-31 22:03:54,14.9832977,0.0002777,70.0008,35.3017,269.5166,90.5675,1.0486e-05,3.2e-07,0.0,0 STARLINK-5804,1 55788U 23028AZ  24152.91938207  .00000032  00000-0  10486-4 0  9999,2 55788  70.0008  35.3017 0002777 269.5166  90.5675 14.98329770 70141,6950.194,96.107,573.989,570.129,0.0
55788.0,STARLINK-5804,PAYLOAD,2024-06-01 09:16:51,14.98329841,0.0002645,70.0011,34.1227,272.1474,87.9382,-7.1692e-05,-9.48e-06,0.0,0 STARLINK-5804,1 55788U 23028AZ  24153.38670304 -.00000948  00000-0 -71692-4 0  9996,2 55788  70.0011  34.1227 0002645 272.1474  87.9382 14.98329841 70213,6950.193,96.107,573.897,570.22,0.0
55788.0,STARLINK-5804,PAYLOAD,2024-06-01 20:29:47,14.98324027,0.0002696,70.0008,32.9449,264.9572,95.128,-8.1092e-05,-1.06e-05,0.0,0 STARLINK-5804,1 55788U 23028AZ  24153.85402760 -.00001060  00000-0 -81092-4 0  9998,2 55788  70.0008  32.9449 0002696 264.9572  95.1280 14.98324027 70270,6950.211,96.107,573.95,570.203,0.0
55788.0,STARLINK-5804,PAYLOAD,2024-06-02 09:18:52,14.98329361,0.0002886,70.0006,31.5993,271.6345,88.4484,-5.4137e-05,-7.39e-06,0.0,0 STARLINK-5804,1 55788U 23028AZ  24154.38810477 -.00000739  00000-0 -54137-4 0  9997,2 55788  70.0006  31.5993 0002886 271.6345  88.4484 14.98329361 70368,6950.195,96.107,574.066,570.054,0.0
55788.0,STARLINK-5804,PAYLOAD,2024-06-02 22:07:56,14.98331209,0.0002912,70.0005,30.2522,267.5204,92.5622,4.7897e-05,4.79e-06,0.0,0 STARLINK-5804,1 55788U 23028AZ  24154.92218039  .00000479  00000-0  47897-4 0  9997,2 55788  70.0005  30.2522 0002912 267.5204  92.5622 14.98331209 70442,6950.189,96.107,574.078,570.03,0.0
55788.0,STARLINK-5804,PAYLOAD,2024-06-03 09:20:52,14.98331949,0.0003024,70.0001,29.0727,265.6283,94.4531,-3.8855e-06,-1.39e-06,0.0,0 STARLINK-5804,1 55788U 23028AZ  24155.38950045 -.00000139  00000-0 -38855-5 0  9998,2 55788  70.0001  29.0727 0003024 265.6283  94.4531 14.98331949 70500,6950.187,96.107,574.154,569.95,0.0
55788.0,STARLINK-5804,PAYLOAD,2024-06-03 22:09:57,14.98330453,0.0003016,70.0001,27.7266,270.4735,89.6078,8.3235e-05,9e-06,0.0,0 STARLINK-5804,1 55788U 23028AZ  24155.92357999  .00000900  00000-0  83235-4 0  9992,2 55788  70.0001  27.7266 0003016 270.4735  89.6078 14.98330453 70590,6950.191,96.107,574.153,569.96,0.0
55788.0,STARLINK-5804,PAYLOAD,2024-06-04 09:22:53,14.98330341,0.0002993,70.0,26.5482,270.6692,89.4124,3.8249e-05,3.63e-06,0.0,0 STARLINK-5804,1 55788U 23028AZ  24156.39090091  .00000363  00000-0  38249-4 0  9999,2 55788  70.0000  26.5482 0002993 270.6692  89.4124 14.98330341 70656,6950.192,96.107,574.137,569.977,0.0
55788.0,STARLINK-5804,PAYLOAD,2024-06-04 22:11:58,14.98332186,0.0002953,69.9992,25.2013,270.5553,89.5268,7.6771e-06,-1e-08,0.0,0 STARLINK-5804,1 55788U 23028AZ  24156.92497949 -.00000001  00000-0  76771-5 0  9994,2 55788  69.9992  25.2013 0002953 270.5553  89.5268 14.98332186 70749,6950.186,96.107,574.104,569.999,0.0
55788.0,STARLINK-5804,PAYLOAD,2024-06-05 01:24:14,14.98334163,0.0002941,70.0013,24.8648,271.1052,88.977,3.9248e-05,3.75e-06,0.0,0 STARLINK-5804,1 55788U 23028AZ  24157.05849720  .00000375  00000-0  39248-4 0  9997,2 55788  70.0013  24.8648 0002941 271.1052  88.9770 14.98334163 70763,6950.18,96.107,574.089,570.001,0.0
55788.0,STARLINK-5804,PAYLOAD,2024-06-05 15:49:27,14.98326026,0.0002837,70.0025,23.3499,272.27,87.8134,-8.1441e-05,-1.064e-05,0.0,0 STARLINK-5804,1 55788U 23028AZ  24157.65934586 -.00001064  00000-0 -81441-4 0  9998,2 55788  70.0025  23.3499 0002837 272.2700  87.8134 14.98326026 70840,6950.205,96.107,574.042,570.098,0.0
55788.0,STARLINK-5804,PAYLOAD,2024-06-06 07:50:47,14.98330958,0.0002856,70.0029,21.6668,272.3504,87.7328,-4.8258e-05,-6.69e-06,0.0,0 STARLINK-5804,1 55788U 23028AZ  24158.32694230 -.00000669  00000-0 -48258-4 0  9991,2 55788  70.0029  21.6668 0002856 272.3504  87.7328 14.98330958 70941,6950.19,96.107,574.04,570.07,0.0
